IONOSFERA-M 2           
1 61736U 24199B   26169.28297336  .00000042  00000+0  38380-4 0  9993
2 61736  98.7170  42.3542 0001001  39.0181 321.1069 14.22757778130984
PRSC-EO1                
1 62725U 25012A   26169.31257023  .00004835  00000+0  24366-3 0  9992
2 62725  97.4223 241.7507 0004849 247.0827 112.9896 15.17620322 78361
BIOMASS                 
1 63772U 25090A   26169.12441546  .00000154  00000+0  35628-4 0  9999
2 63772  98.0739 356.4278 0001314  94.5136 265.6219 14.67536532 60824
GOSAT-GW (IBUKI GW)     
1 64694U 25141A   26169.28105352  .00000033  00000+0  14261-4 0  9995
2 64694  98.0569 106.5805 0001432  84.8292 275.3076 14.67553745 52000
IONOSFERA-M 3           
1 64876U 25155A   26169.30165160  .00000046  00000+0  40800-4 0  9990
2 64876  98.6025 131.1786 0001084 154.7791 205.3440 14.21486670 46565
IONOSFERA-M 4           
1 64877U 25155B   26169.26610282  .00000038  00000+0  37055-4 0  9995
2 64877  98.6031 131.0614 0001084 120.2138 239.9147 14.21488804 46552
MICROCARB               
1 64899U 25156A   26169.10119851  .00000400  00000+0  71074-4 0  9991
2 64899  97.9832 246.2222 0014967 269.0436  90.9056 14.72326302 48105
CO3D 3                  
1 64900U 25156B   26169.24079998  .00003405  00000+0  16034-3 0  9998
2 64900  97.4330 247.9188 0001529 128.9760 231.1611 15.20201586 49699
CO3D 4                  
1 64901U 25156C   26168.64854398  .00000229  00000+0  13681-4 0  9994
2 64901  97.4333 247.3348 0000112   1.7438 358.3797 15.20201715 49604
CO3D 2                  
1 64902U 25156D   26169.27343046  .00003420  00000+0  16102-3 0  9994
2 64902  97.4329 247.8498 0001485 106.9596 253.1802 15.20203887 49698
CO3D 1                  
1 64903U 25156E   26169.27358279  .00003950  00000+0  18548-3 0  9993
2 64903  97.4327 247.8503 0001285 110.7685 249.3688 15.20204104 49696
PRSC-S1                 
1 65055U 25164A   26169.32469962  .00003725  00000+0  25966-3 0  9991
2 65055  41.1308 281.4062 0006412 351.1684   8.9016 15.06466827 48601
SENTINEL-6B             
1 66514U 25264A   26169.10081869 -.00000067  00000+0 -26978-4 0  9998
2 66514  66.0396 133.2808 0008012 269.1593  90.8504 12.80929946 27280
CAS500-3                
1 66655U 25274F   26169.15647863  .00001006  00000+0  11459-3 0  9991
2 66655  97.7445  97.1854 0006783 107.6730 252.5228 14.88322888 30290
CSG-3                   
1 67304U 26001A   26169.27920766  .00000244  00000+0  37177-4 0  9990
2 67304  97.8888 352.8652 0001382  94.6724 265.4647 14.82154443 24621
PRSC-E03                
1 68835U 26092A   26169.24865038  .00002086  00000+0  14513-3 0  9991
2 68835  38.0009  83.4209 0003524  13.2280 346.8573 15.06672796  8113
CAS500-2                
1 69013U 26100AK  26168.87604879  .00005271  00000+0  24333-3 0  9992
2 69013  97.4073  66.7190 0010638  32.5506 327.6383 15.20596874  6914
