OBJECT_NAME,OBJECT_ID,EPOCH,MEAN_MOTION,ECCENTRICITY,INCLINATION,RA_OF_ASC_NODE,ARG_OF_PERICENTER,MEAN_ANOMALY,EPHEMERIS_TYPE,CLASSIFICATION_TYPE,NORAD_CAT_ID,ELEMENT_SET_NO,REV_AT_EPOCH,BSTAR,MEAN_MOTION_DOT,MEAN_MOTION_DDOT
IONOSFERA-M 2,2024-199B,2026-06-18T06:47:28.898304,14.22757778,.00010014,98.7170,42.3542,39.0181,321.1069,0,U,61736,999,13098,.38379836E-4,.42E-6,0
PRSC-EO1,2025-012A,2026-06-18T07:30:06.067872,15.17620322,.00048493,97.4223,241.7507,247.0827,112.9896,0,U,62725,999,7836,.24366307E-3,.4835E-4,0
BIOMASS,2025-090A,2026-06-18T02:59:09.495744,14.67536532,.00013141,98.0739,356.4278,94.5136,265.6219,0,U,63772,999,6082,.35627702E-4,.154E-5,0
GOSAT-GW (IBUKI GW),2025-141A,2026-06-18T06:44:43.024128,14.67553745,.00014325,98.0569,106.5805,84.8292,275.3076,0,U,64694,999,5200,.14260982E-4,.33E-6,0
IONOSFERA-M 3,2025-155A,2026-06-18T07:14:22.698240,14.21486670,.00010841,98.6025,131.1786,154.7791,205.3440,0,U,64876,999,4656,.40800421E-4,.46E-6,0
IONOSFERA-M 4,2025-155B,2026-06-18T06:23:11.283648,14.21488804,.0001084,98.6031,131.0614,120.2138,239.9147,0,U,64877,999,4655,.37054807E-4,.38E-6,0
MICROCARB,2025-156A,2026-06-18T02:25:43.551264,14.72326302,.0014967,97.9832,246.2222,269.0436,90.9056,0,U,64899,999,4810,.71073685E-4,.4E-5,0
CO3D 3,2025-156B,2026-06-18T05:46:45.118272,15.20201586,.00015297,97.4330,247.9188,128.9760,231.1611,0,U,64900,999,4969,.16034056E-3,.3405E-4,0
CO3D 4,2025-156C,2026-06-17T15:33:54.199872,15.20201715,.00001121,97.4333,247.3348,1.7438,358.3797,0,U,64901,999,4960,.13680842E-4,.229E-5,0
CO3D 2,2025-156D,2026-06-18T06:33:44.391744,15.20203887,.00014858,97.4329,247.8498,106.9596,253.1802,0,U,64902,999,4969,.16101676E-3,.342E-4,0
CO3D 1,2025-156E,2026-06-18T06:33:57.553056,15.20204104,.00012854,97.4327,247.8503,110.7685,249.3688,0,U,64903,999,4969,.18548149E-3,.395E-4,0
PRSC-S1,2025-164A,2026-06-18T07:47:34.047168,15.06466827,.00064129,41.1308,281.4062,351.1684,8.9016,0,U,65055,999,4860,.25965799E-3,.3725E-4,0
SENTINEL-6B,2025-264A,2026-06-18T02:25:10.734816,12.80929946,.00080129,66.0396,133.2808,269.1593,90.8504,0,U,66514,999,2728,-.26977733E-4,-.67E-6,0
CAS500-3,2025-274F,2026-06-18T03:45:19.753632,14.88322888,.00067837,97.7445,97.1854,107.6730,252.5228,0,U,66655,999,3029,.11458953E-3,.1006E-4,0
CSG-3,2026-001A,2026-06-18T06:42:03.541824,14.82154443,.00013823,97.8888,352.8652,94.6724,265.4647,0,U,67304,999,2462,.37177463E-4,.244E-5,0
PRSC-E03,2026-092A,2026-06-18T05:58:03.392832,15.06672796,.00035245,38.0009,83.4209,13.2280,346.8573,0,U,68835,999,811,.14512687E-3,.2086E-4,0
CAS500-2,2026-100AK,2026-06-17T21:01:30.615456,15.20596874,.00106387,97.4073,66.7190,32.5506,327.6383,0,U,69013,999,691,.24332807E-3,.5271E-4,0
